MEAN_MOTION;ECCENTRICITY;INCLINATION;RA_OF_ASC_NODE;ARG_OF_PERICENTER;MEAN_ANOMALY;BSTAR;MEAN_MOTION_DOT;MEAN_MOTION_DDOT;TYPE
14.31025495;0.0009036;98.8823;63.1337;216.0284;204.5664;1.7352E-5;-1.0E-8;0;Amateur
14.31025523;0.0009076;98.8824;64.1332;212.9491;203.9574;1.5028E-5;-7.0E-8;0;Amateur
14.31025532;0.0009079;98.8824;64.2047;212.7303;204.3867;1.5084E-5;-7.0E-8;0;Amateur
14.31025611;0.0009122;98.8825;65.2042;209.6556;203.1796;1.4774E-5;-8.0E-8;0;Amateur
14.31025638;0.0009136;98.8826;65.4925;208.7649;216.9547;1.4755E-5;-8.0E-8;0;Amateur
14.31025678;0.0009149;98.8826;65.7879;207.8892;265.7314;1.4056E-5;-9.0E-8;0;Amateur
14.31025711;0.0009172;98.8826;66.1981;206.6688;173.7966;1.3904E-5;-1.0E-7;0;Amateur
14.31025759;0.0009197;98.8827;66.7249;205.0771;309.6928;1.2583E-5;-1.3E-7;0;Amateur
14.31025883;0.0009263;98.8829;68.147;200.6308;279.6182;1.2887E-5;-1.2E-7;0;Amateur
14.31025888;0.0009273;98.8829;68.2718;200.2463;188.4851;1.2323E-5;-1.4E-7;0;Amateur
14.3102601;0.0009325;98.883;69.2072;197.441;224.2708;1.3242E-5;-1.2E-7;0;Amateur
14.3102604;0.0009328;98.883;69.2767;197.2119;214.7141;1.4175E-5;-9.0E-8;0;Amateur
14.31026123;0.0009384;98.8832;70.2784;194.3401;224.4215;1.3862E-5;-1.0E-7;0;Amateur
14.31026128;0.0009388;98.8832;70.3502;194.1243;226.4685;1.3762E-5;-1.0E-7;0;Amateur
14.31026179;0.0009446;98.8833;71.3492;191.2221;222.1293;1.4402E-5;-8.0E-8;0;Amateur
14.31026188;0.0009461;98.8834;71.6381;190.3419;238.0983;1.4617E-5;-8.0E-8;0;Amateur
14.31026201;0.0009493;98.8834;72.2797;188.5395;232.4527;1.3563E-5;-1.1E-7;0;Amateur
14.31026187;0.0009529;98.8835;73.0047;186.445;286.9344;8.7133E-6;-2.3E-7;0;Amateur
14.31026206;0.0009551;98.8836;73.4151;185.2879;195.6209;9.2536E-6;-2.2E-7;0;Amateur
14.31026227;0.0009601;98.8836;74.3513;182.5881;234.5938;1.0471E-5;-1.9E-7;0;Amateur
14.31026235;0.0009605;98.8837;74.4229;182.3822;235.5193;1.0705E-5;-1.8E-7;0;Amateur
14.31026268;0.0009641;98.8837;75.0779;180.4805;297.0594;1.2136E-5;-1.4E-7;0;Amateur
14.31026302;0.0009661;98.8837;75.4224;179.5149;233.2791;1.3428E-5;-1.1E-7;0;Amateur
14.31026317;0.000968;98.8838;75.7108;178.6666;247.3616;1.3753E-5;-1.0E-7;0;Amateur
14.31026364;0.0009697;98.8838;76.0774;177.6281;294.8094;1.4973E-5;-7.0E-8;0;Amateur
14.3102639;0.0009718;98.8838;76.4243;176.638;243.2381;1.4948E-5;-7.0E-8;0;Amateur
14.31026464;0.0009752;98.8839;77.0775;174.7649;295.9535;1.6618E-5;-3.0E-8;0;Amateur
14.31026469;0.0009754;98.8838;77.1396;174.5932;248.9664;1.7353E-5;-1.0E-8;0;Amateur
14.31026505;0.0009775;98.8839;77.4957;173.5935;243.6793;1.7873E-5;1.0E-8;0;Amateur
14.31026588;0.0009827;98.8839;78.4252;170.9494;248.5798;1.8964E-5;4.0E-8;0;Amateur
14.31026594;0.000983;98.8839;78.4953;170.7559;242.306;1.861E-5;3.0E-8;0;Amateur
14.31026731;0.0009887;98.884;79.4977;167.9488;254.4592;1.9722E-5;6.0E-8;0;Amateur
14.31026758;0.0009903;98.884;79.7837;167.1352;255.9862;1.964E-5;5.0E-8;0;Amateur
14.31026851;0.000994;98.8841;80.569;164.9565;253.8794;1.9466E-5;5.0E-8;0;Amateur
14.31026907;0.000997;98.8842;81.1513;163.3199;308.9874;1.9152E-5;4.0E-8;0;Amateur
14.31026944;0.0009994;98.8842;81.5684;162.1678;251.2057;1.9139E-5;4.0E-8;0;Amateur
14.31026985;0.0010045;98.8843;82.496;159.613;246.3018;1.5521E-5;-6.0E-8;0;Amateur
14.31026997;0.0010049;98.8843;82.5688;159.4162;253.1694;1.5368E-5;-6.0E-8;0;Amateur
14.31027042;0.0010093;98.8845;83.5699;156.6889;258.6293;1.1349E-5;-1.6E-7;0;Amateur
14.3102708;0.0010129;98.8846;84.297;154.6923;322.5918;1.1422E-5;-1.6E-7;0;Amateur
14.31027115;0.0010144;98.8846;84.6416;153.7631;259.6658;1.201E-5;-1.5E-7;0;Amateur
14.31027123;0.0010158;98.8847;84.871;153.122;335.8879;1.1971E-5;-1.5E-7;0;Amateur
14.3102714;0.001018;98.8847;85.2968;151.9664;321.5178;1.1266E-5;-1.7E-7;0;Amateur
14.31027143;0.0010196;98.8848;85.6421;151.0422;261.6654;1.0085E-5;-2.0E-7;0;Amateur
14.31027156;0.0010246;98.8849;86.5731;148.5413;273.518;6.9987E-6;-2.8E-7;0;Amateur
14.31027157;0.0010249;98.8849;86.644;148.3529;270.9559;6.4045E-6;-2.9E-7;0;Amateur
14.31027195;0.0010297;98.885;87.6442;145.6502;271.5497;7.6455E-6;-2.6E-7;0;Amateur
14.31027214;0.00103;98.885;87.7163;145.4591;274.9279;8.6414E-6;-2.4E-7;0;Amateur
14.31027308;0.0010356;98.8851;88.7155;142.7696;270.3009;1.2757E-5;-1.3E-7;0;Amateur
14.3102735;0.001037;98.8851;89.0039;141.9884;283.7247;1.4522E-5;-8.0E-8;0;Amateur
14.31027439;0.0010403;98.8851;89.7182;140.1066;283.4506;1.6622E-5;-3.0E-8;0;Amateur
14.31027523;0.0010426;98.8852;90.2306;138.7348;345.4149;1.87E-5;3.0E-8;0;Amateur
14.31027581;0.0010444;98.8852;90.7893;137.2563;281.0876;2.0703E-5;8.0E-8;0;Amateur
14.31027671;0.0010473;98.8852;91.3718;135.6854;336.3049;2.3456E-5;1.5E-7;0;Amateur
14.3102772;0.0010488;98.8852;91.789;134.5898;278.7327;2.4406E-5;1.8E-7;0;Amateur
14.31027841;0.0010529;98.8853;92.7199;132.1575;289.7775;2.5247E-5;2.0E-7;0;Amateur
14.31027853;0.0010529;98.8853;92.7895;131.9678;280.1903;2.5106E-5;2.0E-7;0;Amateur
14.31027959;0.0010568;98.8853;93.7908;129.3427;286.1628;2.3343E-5;1.5E-7;0;Amateur
14.31027973;0.001057;98.8853;93.8635;129.1525;292.5838;2.3448E-5;1.5E-7;0;Amateur
14.31028053;0.0010583;98.8854;94.8626;126.469;286.6034;2.226E-5;1.2E-7;0;Amateur
14.31028163;0.0010613;98.8855;95.8632;123.8326;288.8931;2.0494E-5;8.0E-8;0;Amateur
14.31028185;0.0010645;98.8855;96.8648;121.1948;296.2916;1.4622E-5;-8.0E-8;0;Amateur
14.31028192;0.0010678;98.8856;97.8063;118.7113;359.8119;1.047E-5;-1.9E-7;0;Amateur
14.31028233;0.0010698;98.8857;98.5201;116.8524;356.3783;9.5477E-6;-2.1E-7;0;Amateur
14.31028244;0.0010708;98.8857;98.9371;115.7794;297.3521;8.6483E-6;-2.4E-7;0;Amateur
14.31028275;0.0010729;98.8858;99.5924;114.0941;359.1633;7.2749E-6;-2.7E-7;0;Amateur
14.31028287;0.0010736;98.8858;99.9314;113.2389;267.5052;6.8125E-6;-2.8E-7;0;Amateur
14.31028351;0.0010764;98.8859;100.9395;110.6888;306.8642;7.7814E-6;-2.6E-7;0;Amateur
14.31028353;0.0010763;98.8859;101.0111;110.4808;307.8671;7.8912E-6;-2.6E-7;0;Amateur
14.31028441;0.001079;98.886;102.0109;107.9272;305.2243;1.1743E-5;-1.5E-7;0;Amateur
14.31028441;0.001079;98.886;102.0109;107.9272;305.2243;1.1743E-5;-1.5E-7;0;Amateur
14.31028497;0.0010802;98.886;102.6656;106.2288;4.2231;1.3132E-5;-1.2E-7;0;Amateur
14.31028555;0.0010802;98.8861;103.0135;105.3638;317.1817;1.4994E-5;-7.0E-8;0;Amateur
14.31028581;0.0010809;98.8861;103.2995;104.6543;318.0384;1.5507E-5;-6.0E-8;0;Amateur
14.31028624;0.0010817;98.8861;103.5955;103.9042;9.6139;1.559E-5;-5.0E-8;0;Amateur
14.31028639;0.0010822;98.8861;103.9538;102.986;14.806;1.6287E-5;-3.0E-8;0;Amateur
14.31028704;0.0010827;98.8862;104.5275;101.4504;25.3994;1.8092E-5;1.0E-8;0;Amateur
14.31028706;0.0010828;98.8862;104.6672;101.0968;9.0116;1.8154E-5;1.0E-8;0;Amateur
14.31028756;0.0010836;98.8862;105.0847;100.1151;313.0415;2.0072E-5;7.0E-8;0;Amateur
14.31028816;0.0010844;98.8862;105.6683;98.611;13.4054;2.0662E-5;8.0E-8;0;Amateur
14.31028852;0.0010845;98.8862;106.0854;97.555;314.954;2.0822E-5;8.0E-8;0;Amateur
14.31028898;0.0010849;98.8862;106.7402;95.8484;14.1265;1.9469E-5;5.0E-8;0;Amateur
14.31028918;0.0010847;98.8862;107.0868;94.9537;320.4279;1.9118E-5;4.0E-8;0;Amateur
14.31028942;0.0010853;98.8862;108.0881;92.3216;325.4562;1.6774E-5;-2.0E-8;0;Amateur
14.3102895;0.0010853;98.8862;108.1596;92.143;325.3904;1.6721E-5;-2.0E-8;0;Amateur
14.31029001;0.0010854;98.8862;109.1595;89.5947;323.2396;1.5156E-5;-6.0E-8;0;Amateur
14.31029009;0.0010857;98.8863;109.448;88.8665;337.1558;1.4309E-5;-9.0E-8;0;Amateur
14.3102906;0.0010852;98.8863;110.1612;87.0432;330.5129;1.2652E-5;-1.3E-7;0;Amateur
14.31029104;0.0010855;98.8863;110.8153;85.3714;25.7812;1.1674E-5;-1.6E-7;0;Amateur
14.31029139;0.0010853;98.8864;111.2336;84.311;333.6353;1.1879E-5;-1.5E-7;0;Amateur
14.3102919;0.0010856;98.8864;111.8886;82.6595;33.4477;1.2283E-5;-1.4E-7;0;Amateur
14.3102919;0.0010856;98.8864;111.8886;82.6595;33.4477;1.2283E-5;-1.4E-7;0;Amateur
14.31029223;0.001085;98.8864;112.2335;81.7785;331.1787;1.2357E-5;-1.4E-7;0;Amateur
14.31029283;0.0010845;98.8865;112.8887;80.0951;32.1408;1.182E-5;-1.5E-7;0;Amateur
14.31029304;0.001084;98.8865;113.1646;79.3939;342.3165;1.1646E-5;-1.6E-7;0;Amateur
14.31029319;0.0010838;98.8865;113.2355;79.2057;339.4432;1.18E-5;-1.5E-7;0;Amateur
14.31029387;0.0010833;98.8866;113.8892;77.5525;33.1003;1.1308E-5;-1.7E-7;0;Amateur
14.31029425;0.0010832;98.8866;114.2356;76.6986;338.5384;1.2098E-5;-1.4E-7;0;Amateur
14.31029432;0.0010829;98.8866;114.3084;76.4944;345.2384;1.2092E-5;-1.5E-7;0;Amateur
14.31029507;0.001082;98.8866;115.3076;74.0511;339.2117;1.2647E-5;-1.3E-7;0;Amateur
14.31029541;0.0010811;98.8867;115.5964;73.2024;354.1518;1.37E-5;-1.0E-7;0;Amateur
14.31029625;0.0010796;98.8867;116.3084;71.2911;340.9536;1.4376E-5;-9.0E-8;0;Amateur
14.31029661;0.0010788;98.8868;116.9639;69.6087;43.4605;1.3115E-5;-1.2E-7;0;Amateur
14.31029674;0.0010781;98.8868;117.3098;68.7073;346.1483;1.2841E-5;-1.3E-7;0;Amateur
14.31029738;0.001076;98.8868;118.3838;65.9271;356.5767;1.4137E-5;-9.0E-8;0;Amateur
14.31029767;0.001075;98.8868;118.9654;64.4205;46.66;1.4383E-5;-8.0E-8;0;Amateur
14.31029829;0.0010722;98.8868;120.0383;61.6689;51.6318;1.3943E-5;-1.0E-7;0;Amateur
14.31029854;0.001071;98.8868;120.3848;60.7764;357.3986;1.439E-5;-8.0E-8;0;Amateur
14.3102988;0.0010694;98.8868;121.1116;58.8615;58.8474;1.4536E-5;-8.0E-8;0;Amateur
14.3102991;0.0010687;98.8868;121.3855;58.1485;358.7946;1.5583E-5;-5.0E-8;0;Amateur
14.3102992;0.0010685;98.8868;121.4571;57.9628;359.6373;1.5757E-5;-5.0E-8;0;Amateur
14.31029988;0.0010669;98.8869;122.1114;56.2763;55.7888;1.788E-5;1.0E-8;0;Amateur
14.31030024;0.0010657;98.8868;122.4571;55.3605;357.3959;1.8207E-5;2.0E-8;0;Amateur
14.31030044;0.0010649;98.8869;122.7457;54.6254;11.1636;1.8218E-5;2.0E-8;0;Amateur
14.31030121;0.0010622;98.8869;123.4593;52.7459;6.2913;1.7844E-5;1.0E-8;0;Amateur
14.31030205;0.0010604;98.8869;124.0423;51.2397;63.3039;1.8208E-5;2.0E-8;0;Amateur
14.31030229;0.0010591;98.8869;124.4003;50.3038;66.9327;1.8398E-5;2.0E-8;0;Amateur
14.31030323;0.0010569;98.8869;125.0427;48.6684;63.4423;1.9043E-5;4.0E-8;0;Amateur
14.31030416;0.001054;98.887;125.8202;46.6163;20.2305;1.9491E-5;5.0E-8;0;Amateur
